0 COSMOS 1158
1 11693U 80012C   13282.01102542  .00000008  00000-0  15458-3 0  3462
2 11693 074.0196 291.1464 0028327 300.1824 087.5500 12.52281061538803
0 COSMOS 1158
1 11693U 80012C   13284.17716481  .00000011  00000-0  17296-3 0  3471
2 11693 074.0194 288.2535 0028335 296.9829 132.8985 12.52281332539075
0 COSMOS 1158
1 11693U 80012C   13286.50452265 -.00000020  00000-0 -27087-4 0  3480
2 11693 074.0194 285.1450 0028344 293.5555 185.0391 12.52281680539365
0 COSMOS 1158
1 11693U 80012C   13288.73938815 -.00000038  00000-0 -14184-3 0  3490
2 11693 074.0196 282.1601 0028348 290.2140 180.2608 12.52281766539644
0 COSMOS 1158
1 11693U 80012C   13290.96551334 -.00000022  00000-0 -35051-4 0  3507
2 11693 074.0200 279.1869 0028344 286.9867 135.9797 12.52281666539922
0 COSMOS 1158
1 11693U 80012C   13293.12648458  .00000006  00000-0  14152-3 0  3511
2 11693 074.0203 276.3010 0028338 283.8318 157.9969 12.52281455540194
0 COSMOS 1158
1 11693U 80012C   13295.53140293  .00000008  00000-0  15502-3 0  3525
2 11693 074.0204 273.0894 0028338 280.3176 199.7681 12.52281399540498
